[{"OBJECT_NAME":"HAWK-6A","OBJECT_ID":"2023-011D","EPOCH":"2026-03-14T14:15:15.599520","MEAN_MOTION":15.21981437,"ECCENTRICITY":0.00014984,"INCLINATION":40.4978,"RA_OF_ASC_NODE":181.8937,"ARG_OF_PERICENTER":51.2057,"MEAN_ANOMALY":308.8886,"EPHEMERIS_TYPE":0,"CLASSIFICATION_TYPE":"U","NORAD_CAT_ID":55327,"ELEMENT_SET_NO":999,"REV_AT_EPOCH":17343,"BSTAR":0.00034218324,"MEAN_MOTION_DOT":7.787e-5,"MEAN_MOTION_DDOT":0},{"OBJECT_NAME":"HAWK-7A","OBJECT_ID":"2023-054P","EPOCH":"2026-03-14T14:33:03.743712","MEAN_MOTION":15.26285408,"ECCENTRICITY":0.00039538,"INCLINATION":97.283,"RA_OF_ASC_NODE":323.3504,"ARG_OF_PERICENTER":38.3121,"MEAN_ANOMALY":321.8398,"EPHEMERIS_TYPE":0,"CLASSIFICATION_TYPE":"U","NORAD_CAT_ID":56191,"ELEMENT_SET_NO":999,"REV_AT_EPOCH":16259,"BSTAR":0.00033940116,"MEAN_MOTION_DOT":8.735e-5,"MEAN_MOTION_DDOT":0},{"OBJECT_NAME":"HAWK-7B","OBJECT_ID":"2023-054R","EPOCH":"2026-03-14T14:32:57.560928","MEAN_MOTION":15.26285147,"ECCENTRICITY":0.00034339,"INCLINATION":97.2862,"RA_OF_ASC_NODE":321.5782,"ARG_OF_PERICENTER":52.146,"MEAN_ANOMALY":308.0089,"EPHEMERIS_TYPE":0,"CLASSIFICATION_TYPE":"U","NORAD_CAT_ID":56193,"ELEMENT_SET_NO":999,"REV_AT_EPOCH":16259,"BSTAR":0.00034668265,"MEAN_MOTION_DOT":8.924e-5,"MEAN_MOTION_DDOT":0},{"OBJECT_NAME":"HAWK-7C","OBJECT_ID":"2023-054Y","EPOCH":"2026-03-14T14:32:47.270688","MEAN_MOTION":15.26284824,"ECCENTRICITY":0.00032984,"INCLINATION":97.2835,"RA_OF_ASC_NODE":322.3777,"ARG_OF_PERICENTER":42.4193,"MEAN_ANOMALY":317.73,"EPHEMERIS_TYPE":0,"CLASSIFICATION_TYPE":"U","NORAD_CAT_ID":56200,"ELEMENT_SET_NO":999,"REV_AT_EPOCH":16259,"BSTAR":0.00034214872,"MEAN_MOTION_DOT":8.806e-5,"MEAN_MOTION_DDOT":0}]
