HAWK-6A                 
1 55327U 23011D   26073.59393055  .00007787  00000+0  34218-3 0  9995
2 55327  40.4978 181.8937 0001498  51.2057 308.8886 15.21981437173435
HAWK-7A                 
1 56191U 23054P   26073.60629333  .00008735  00000+0  33940-3 0  9990
2 56191  97.2830 323.3504 0003953  38.3121 321.8398 15.26285408162599
HAWK-7B                 
1 56193U 23054R   26073.60622177  .00008924  00000+0  34668-3 0  9999
2 56193  97.2862 321.5782 0003433  52.1460 308.0089 15.26285147162591
HAWK-7C                 
1 56200U 23054Y   26073.60610267  .00008806  00000+0  34215-3 0  9992
2 56200  97.2835 322.3777 0003298  42.4193 317.7300 15.26284824162591
